{
  "links" : {
    "next" : "https://api.nasa.gov/neo/rest/v1/feed?start_date=1995-03-09&end_date=1995-03-09&detailed=true&api_key=t0TVs3DtDT2H8Oy2Zy8m2eVrNsAVKAexjcZXUckd",
    "prev" : "https://api.nasa.gov/neo/rest/v1/feed?start_date=1995-03-07&end_date=1995-03-07&detailed=true&api_key=t0TVs3DtDT2H8Oy2Zy8m2eVrNsAVKAexjcZXUckd",
    "self" : "https://api.nasa.gov/neo/rest/v1/feed?start_date=1995-03-08&end_date=1995-03-08&detailed=true&api_key=t0TVs3DtDT2H8Oy2Zy8m2eVrNsAVKAexjcZXUckd"
  },
  "element_count" : 7,
  "near_earth_objects" : {
    "1995-03-08" : [ {
      "links" : {
        "self" : "https://api.nasa.gov/neo/rest/v1/neo/2162173?api_key=t0TVs3DtDT2H8Oy2Zy8m2eVrNsAVKAexjcZXUckd"
      },
      "neo_reference_id" : "2162173",
      "name" : "162173 Ryugu (1999 JU3)",
      "nasa_jpl_url" : "http://ssd.jpl.nasa.gov/sbdb.cgi?sstr=2162173",
      "absolute_magnitude_h" : 19.3,
      "estimated_diameter" : {
        "kilometers" : {
          "estimated_diameter_min" : 0.3669061375,
          "estimated_diameter_max" : 0.8204270649
        },
        "meters" : {
          "estimated_diameter_min" : 366.9061375314,
          "estimated_diameter_max" : 820.4270648822
        },
        "miles" : {
          "estimated_diameter_min" : 0.2279848336,
          "estimated_diameter_max" : 0.5097895857
        },
        "feet" : {
          "estimated_diameter_min" : 1203.7603322587,
          "estimated_diameter_max" : 2691.6899315481
        }
      },
      "is_potentially_hazardous_asteroid" : true,
      "close_approach_data" : [ {
        "close_approach_date" : "1995-03-08",
        "epoch_date_close_approach" : 794649600000,
        "relative_velocity" : {
          "kilometers_per_second" : "13.5763026447",
          "kilometers_per_hour" : "48874.689520897",
          "miles_per_hour" : "30368.8313859151"
        },
        "miss_distance" : {
          "astronomical" : "0.3507449112",
          "lunar" : "136.4397735596",
          "kilometers" : "52470692",
          "miles" : "32603776"
        },
        "orbiting_body" : "Earth"
      } ],
      "orbital_data" : {
        "orbit_id" : "117",
        "orbit_determination_date" : "2017-04-06 09:26:35",
        "orbit_uncertainty" : "0",
        "minimum_orbit_intersection" : ".00132059",
        "jupiter_tisserand_invariant" : "5.308",
        "epoch_osculation" : "2458000.5",
        "eccentricity" : ".1902842554038815",
        "semi_major_axis" : "1.189560559495507",
        "inclination" : "5.883903317829792",
        "ascending_node_longitude" : "251.5911063365942",
        "orbital_period" : "473.8907826636587",
        "perihelion_distance" : ".9632059141740799",
        "perihelion_argument" : "211.4467739786354",
        "aphelion_distance" : "1.415915204816935",
        "perihelion_time" : "2457797.751480023557",
        "mean_anomaly" : "154.0217068187274",
        "mean_motion" : ".7596687109559334",
        "equinox" : "J2000"
      }
    }, {
      "links" : {
        "self" : "https://api.nasa.gov/neo/rest/v1/neo/3092312?api_key=t0TVs3DtDT2H8Oy2Zy8m2eVrNsAVKAexjcZXUckd"
      },
      "neo_reference_id" : "3092312",
      "name" : "(2001 QM142)",
      "nasa_jpl_url" : "http://ssd.jpl.nasa.gov/sbdb.cgi?sstr=3092312",
      "absolute_magnitude_h" : 22.6,
      "estimated_diameter" : {
        "kilometers" : {
          "estimated_diameter_min" : 0.0802703167,
          "estimated_diameter_max" : 0.1794898848
        },
        "meters" : {
          "estimated_diameter_min" : 80.2703167283,
          "estimated_diameter_max" : 179.4898847799
        },
        "miles" : {
          "estimated_diameter_min" : 0.049877647,
          "estimated_diameter_max" : 0.1115298092
        },
        "feet" : {
          "estimated_diameter_min" : 263.3540659348,
          "estimated_diameter_max" : 588.8775935812
        }
      },
      "is_potentially_hazardous_asteroid" : false,
      "close_approach_data" : [ {
        "close_approach_date" : "1995-03-08",
        "epoch_date_close_approach" : 794649600000,
        "relative_velocity" : {
          "kilometers_per_second" : "11.4702980441",
          "kilometers_per_hour" : "41293.0729588648",
          "miles_per_hour" : "25657.9096949124"
        },
        "miss_distance" : {
          "astronomical" : "0.0517703658",
          "lunar" : "20.138671875",
          "kilometers" : "7744736.5",
          "miles" : "4812356.5"
        },
        "orbiting_body" : "Earth"
      } ],
      "orbital_data" : {
        "orbit_id" : "14",
        "orbit_determination_date" : "2017-04-20 12:22:05",
        "orbit_uncertainty" : "0",
        "minimum_orbit_intersection" : ".0341962",
        "jupiter_tisserand_invariant" : "5.089",
        "epoch_osculation" : "2458000.5",
        "eccentricity" : ".4282526106821032",
        "semi_major_axis" : "1.234937694057483",
        "inclination" : "5.850410278034516",
        "ascending_node_longitude" : "151.2892418885367",
        "orbital_period" : "501.2634017981307",
        "perihelion_distance" : ".7060724025476296",
        "perihelion_argument" : "292.6184516502227",
        "aphelion_distance" : "1.763802985567337",
        "perihelion_time" : "2457751.688642938134",
        "mean_anomaly" : "178.6926558391438",
        "mean_motion" : ".7181852868344447",
        "equinox" : "J2000"
      }
    }, {
      "links" : {
        "self" : "https://api.nasa.gov/neo/rest/v1/neo/3273782?api_key=t0TVs3DtDT2H8Oy2Zy8m2eVrNsAVKAexjcZXUckd"
      },
      "neo_reference_id" : "3273782",
      "name" : "(2005 ES70)",
      "nasa_jpl_url" : "http://ssd.jpl.nasa.gov/sbdb.cgi?sstr=3273782",
      "absolute_magnitude_h" : 23.8,
      "estimated_diameter" : {
        "kilometers" : {
          "estimated_diameter_min" : 0.046190746,
          "estimated_diameter_max" : 0.1032856481
        },
        "meters" : {
          "estimated_diameter_min" : 46.1907460282,
          "estimated_diameter_max" : 103.2856480504
        },
        "miles" : {
          "estimated_diameter_min" : 0.0287015901,
          "estimated_diameter_max" : 0.0641787064
        },
        "feet" : {
          "estimated_diameter_min" : 151.544447199,
          "estimated_diameter_max" : 338.8636855496
        }
      },
      "is_potentially_hazardous_asteroid" : false,
      "close_approach_data" : [ {
        "close_approach_date" : "1995-03-08",
        "epoch_date_close_approach" : 794649600000,
        "relative_velocity" : {
          "kilometers_per_second" : "11.9306425303",
          "kilometers_per_hour" : "42950.3131091804",
          "miles_per_hour" : "26687.6542760905"
        },
        "miss_distance" : {
          "astronomical" : "0.0975441157",
          "lunar" : "37.9446640015",
          "kilometers" : "14592393",
          "miles" : "9067292"
        },
        "orbiting_body" : "Earth"
      } ],
      "orbital_data" : {
        "orbit_id" : "34",
        "orbit_determination_date" : "2017-03-09 06:17:26",
        "orbit_uncertainty" : "0",
        "minimum_orbit_intersection" : ".052677",
        "jupiter_tisserand_invariant" : "7.480",
        "epoch_osculation" : "2455882.5",
        "eccentricity" : ".3864587856542614",
        "semi_major_axis" : ".7629744336180587",
        "inclination" : "20.83376792025673",
        "ascending_node_longitude" : "352.9223651783215",
        "orbital_period" : "243.4240059087946",
        "perihelion_distance" : ".4681162605167759",
        "perihelion_argument" : "351.1788107856062",
        "aphelion_distance" : "1.057832606719342",
        "perihelion_time" : "2455988.218870874459",
        "mean_anomaly" : "203.652258647551",
        "mean_motion" : "1.478900976327223",
        "equinox" : "J2000"
      }
    } ]
  }
}